[
    {
        "Altitude(m)": 611965.1670019074,
        "Argument of Periapsis(deg)": 0.0,
        "Eccentricity": 0.0,
        "Inclination(deg)": 60.0,
        "Latitude(deg)": 59.14010592844933,
        "Longitude(deg)": -81.0302038963048,
        "Mean Anomaly(deg)": -278.1818,
        "RAAN(deg)": 305.0,
        "Satellite Name": "Test1 1347",
        "Satellite Number": 1347,
        "Semi-Major Axis(m)": 6980739.136638005,
        "Time(s)": 0
    },
    {
        "Altitude(m)": 611995.7926449507,
        "Argument of Periapsis(deg)": 0.00010418945913296404,
        "Eccentricity": 0.0,
        "Inclination(deg)": 60.0,
        "Latitude(deg)": 59.2832061849564,
        "Longitude(deg)": -79.89684368336907,
        "Mean Anomaly(deg)": -277.5616938545382,
        "RAAN(deg)": 304.99957995086027,
        "Satellite Name": "Test1 1347",
        "Satellite Number": 1347,
        "Semi-Major Axis(m)": 6980739.136638005,
        "Time(s)": 10
    },
    {
        "Altitude(m)": 612024.0774090468,
        "Argument of Periapsis(deg)": 0.0002083789182659281,
        "Eccentricity": 0.0,
        "Inclination(deg)": 60.0,
        "Latitude(deg)": 59.415624417466795,
        "Longitude(deg)": -78.75395997175688,
        "Mean Anomaly(deg)": -276.9415877090764,
        "RAAN(deg)": 304.9991599017205,
        "Satellite Name": "Test1 1347",
        "Satellite Number": 1347,
        "Semi-Major Axis(m)": 6980739.136638005,
        "Time(s)": 20
    },
    {
        "Altitude(m)": 612050.0050752773,
        "Argument of Periapsis(deg)": 0.00031256837739889213,
        "Eccentricity": 0.0,
        "Inclination(deg)": 60.0,
        "Latitude(deg)": 59.53722120163863,
        "Longitude(deg)": -77.60218076328489,
        "Mean Anomaly(deg)": -276.32148156361444,
        "RAAN(deg)": 304.9987398525808,
        "Satellite Name": "Test1 1347",
        "Satellite Number": 1347,
        "Semi-Major Axis(m)": 6980739.136638005,
        "Time(s)": 30
    },
    {
        "Altitude(m)": 612073.5607849635,
        "Argument of Periapsis(deg)": 0.0004167578365318562,
        "Eccentricity": 0.0,
        "Inclination(deg)": 60.0,
        "Latitude(deg)": 59.64786636933618,
        "Longitude(deg)": -76.44216967499189,
        "Mean Anomaly(deg)": -275.7013754181527,
        "RAAN(deg)": 304.998319803441,
        "Satellite Name": "Test1 1347",
        "Satellite Number": 1347,
        "Semi-Major Axis(m)": 6980739.136638005,
        "Time(s)": 40
    },
    {
        "Altitude(m)": 612094.7310466901,
        "Argument of Periapsis(deg)": 0.0005209472956648203,
        "Eccentricity": 0.0,
        "Inclination(deg)": 60.0,
        "Latitude(deg)": 59.74743966176553,
        "Longitude(deg)": -75.27462508022728,
        "Mean Anomaly(deg)": -275.0812692726908,
        "RAAN(deg)": 304.9978997543013,
        "Satellite Name": "Test1 1347",
        "Satellite Number": 1347,
        "Semi-Major Axis(m)": 6980739.136638005,
        "Time(s)": 50
    },
    {
        "Altitude(m)": 612113.5037426476,
        "Argument of Periapsis(deg)": 0.0006251367547977843,
        "Eccentricity": 0.0,
        "Inclination(deg)": 60.0,
        "Latitude(deg)": 59.835831349047645,
        "Longitude(deg)": -74.10027740395049,
        "Mean Anomaly(deg)": -274.461163127229,
        "RAAN(deg)": 304.99747970516154,
        "Satellite Name": "Test1 1347",
        "Satellite Number": 1347,
        "Semi-Major Axis(m)": 6980739.136638005,
        "Time(s)": 60
    },
    {
        "Altitude(m)": 612129.8681343471,
        "Argument of Periapsis(deg)": 0.0007293262139307483,
        "Eccentricity": 0.0,
        "Inclination(deg)": 60.0,
        "Latitude(deg)": 59.912942809165514,
        "Longitude(deg)": -72.91988609566535,
        "Mean Anomaly(deg)": -273.84105698176717,
        "RAAN(deg)": 304.9970596560218,
        "Satellite Name": "Test1 1347",
        "Satellite Number": 1347,
        "Semi-Major Axis(m)": 6980739.136638005,
        "Time(s)": 70
    },
    {
        "Altitude(m)": 612143.8148676804,
        "Argument of Periapsis(deg)": 0.0008335156730637124,
        "Eccentricity": 0.0,
        "Inclination(deg)": 60.0,
        "Latitude(deg)": 59.97868705945923,
        "Longitude(deg)": -71.73423780901004,
        "Mean Anomaly(deg)": -273.22095083630535,
        "RAAN(deg)": 304.99663960688207,
        "Satellite Name": "Test1 1347",
        "Satellite Number": 1347,
        "Semi-Major Axis(m)": 6980739.136638005,
        "Time(s)": 80
    },
    {
        "Altitude(m)": 612155.3359773405,
        "Argument of Periapsis(deg)": 0.0009377051321966765,
        "Eccentricity": 0.0,
        "Inclination(deg)": 60.0,
        "Latitude(deg)": 60.03298923420506,
        "Longitude(deg)": -70.54414278409031,
        "Mean Anomaly(deg)": -272.60084469084353,
        "RAAN(deg)": 304.99621955774234,
        "Satellite Name": "Test1 1347",
        "Satellite Number": 1347,
        "Semi-Major Axis(m)": 6980739.136638005,
        "Time(s)": 90
    },
    {
        "Altitude(m)": 612164.4248905411,
        "Argument of Periapsis(deg)": 0.0010418945913296407,
        "Eccentricity": 0.0,
        "Inclination(deg)": 60.0,
        "Latitude(deg)": 60.07578700230986,
        "Longitude(deg)": -69.35043097272258,
        "Mean Anomaly(deg)": -271.9807385453817,
        "RAAN(deg)": 304.99579950860254,
        "Satellite Name": "Test1 1347",
        "Satellite Number": 1347,
        "Semi-Major Axis(m)": 6980739.136638005,
        "Time(s)": 100
    },
    {
        "Altitude(m)": 612171.0764301354,
        "Argument of Periapsis(deg)": 0.0011460840504626045,
        "Eccentricity": 0.0,
        "Inclination(deg)": 60.0,
        "Latitude(deg)": 60.107030919778296,
        "Longitude(deg)": -68.15394945186222,
        "Mean Anomaly(deg)": -271.3606323999199,
        "RAAN(deg)": 304.99537945946287,
        "Satellite Name": "Test1 1347",
        "Satellite Number": 1347,
        "Semi-Major Axis(m)": 6980739.136638005,
        "Time(s)": 110
    },
    {
        "Altitude(m)": 612175.2868170466,
        "Argument of Periapsis(deg)": 0.0012502735095955685,
        "Eccentricity": 0.0,
        "Inclination(deg)": 60.0,
        "Latitude(deg)": 60.126684712358944,
        "Longitude(deg)": -66.95555813646541,
        "Mean Anomaly(deg)": -270.7405262544581,
        "RAAN(deg)": 304.9949594103231,
        "Satellite Name": "Test1 1347",
        "Satellite Number": 1347,
        "Semi-Major Axis(m)": 6980739.136638005,
        "Time(s)": 120
    },
    {
        "Altitude(m)": 612177.0536720348,
        "Argument of Periapsis(deg)": 0.0013544629687285324,
        "Eccentricity": 0.0,
        "Inclination(deg)": 60.0,
        "Latitude(deg)": 60.13472548462758,
        "Longitude(deg)": -65.75612534554895,
        "Mean Anomaly(deg)": -270.1204201089962,
        "RAAN(deg)": 304.99453936118334,
        "Satellite Name": "Test1 1347",
        "Satellite Number": 1347,
        "Semi-Major Axis(m)": 6980739.136638005,
        "Time(s)": 130
    },
    {
        "Altitude(m)": 612176.3760168275,
        "Argument of Periapsis(deg)": 0.0014586524278614966,
        "Eccentricity": 0.0,
        "Inclination(deg)": 60.0,
        "Latitude(deg)": 60.13114385270682,
        "Longitude(deg)": -64.55652477832638,
        "Mean Anomaly(deg)": -269.5003139635344,
        "RAAN(deg)": 304.9941193120436,
        "Satellite Name": "Test1 1347",
        "Satellite Number": 1347,
        "Semi-Major Axis(m)": 6980739.136638005,
        "Time(s)": 140
    },
    {
        "Altitude(m)": 612173.2542745697,
        "Argument of Periapsis(deg)": 0.0015628418869944607,
        "Eccentricity": 0.0,
        "Inclination(deg)": 60.0,
        "Latitude(deg)": 60.11594399883149,
        "Longitude(deg)": -63.35763092089017,
        "Mean Anomaly(deg)": -268.88020781807256,
        "RAAN(deg)": 304.9936992629039,
        "Satellite Name": "Test1 1347",
        "Satellite Number": 1347,
        "Semi-Major Axis(m)": 6980739.136638005,
        "Time(s)": 150
    },
    {
        "Altitude(m)": 612167.6902696245,
        "Argument of Periapsis(deg)": 0.0016670313461274247,
        "Eccentricity": 0.0,
        "Inclination(deg)": 60.0,
        "Latitude(deg)": 60.089143647020094,
        "Longitude(deg)": -62.160314443741505,
        "Mean Anomaly(deg)": -268.2601016726107,
        "RAAN(deg)": 304.99327921376414,
        "Satellite Name": "Test1 1347",
        "Satellite Number": 1347,
        "Semi-Major Axis(m)": 6980739.136638005,
        "Time(s)": 160
    },
    {
        "Altitude(m)": 612159.6872267012,
        "Argument of Periapsis(deg)": 0.0017712208052603888,
        "Eccentricity": 0.0,
        "Inclination(deg)": 60.0,
        "Latitude(deg)": 60.05077396018085,
        "Longitude(deg)": -60.9654391506653,
        "Mean Anomaly(deg)": -267.6399955271488,
        "RAAN(deg)": 304.9928591646244,
        "Satellite Name": "Test1 1347",
        "Satellite Number": 1347,
        "Semi-Major Axis(m)": 6980739.136638005,
        "Time(s)": 170
    },
    {
        "Altitude(m)": 612149.2497693511,
        "Argument of Periapsis(deg)": 0.001875410264393353,
        "Eccentricity": 0.0,
        "Inclination(deg)": 60.0,
        "Latitude(deg)": 60.00087936004591,
        "Longitude(deg)": -59.773857500011,
        "Mean Anomaly(deg)": -267.01988938168705,
        "RAAN(deg)": 304.9924391154846,
        "Satellite Name": "Test1 1347",
        "Satellite Number": 1347,
        "Semi-Major Axis(m)": 6980739.136638005,
        "Time(s)": 180
    },
    {
        "Altitude(m)": 612136.3839177681,
        "Argument of Periapsis(deg)": 0.0019795997235263173,
        "Eccentricity": 0.0,
        "Inclination(deg)": 60.0,
        "Latitude(deg)": 59.93951727235351,
        "Longitude(deg)": -58.58640625621019,
        "Mean Anomaly(deg)": -266.3997832362252,
        "RAAN(deg)": 304.99201906634494,
        "Satellite Name": "Test1 1347",
        "Satellite Number": 1347,
        "Semi-Major Axis(m)": 6980739.136638005,
        "Time(s)": 190
    }
]